STARLINK-33819          
1 63494U 25071B   26068.52341709  .00014711  00000+0  50798-3 0  9999
2 63494  53.1601 142.8886 0001108  97.8644 262.2482 15.30189397 52693
KUIPER-00208            
1 67775U 26030M   26068.67231509  .00043852  00000+0  13883-2 0  9994
2 67775  51.8846 219.6993 0015525  57.3146 302.9333 15.32208734  5080
